AMC-1 (GE-1)            
1 24315U 96054A   23221.19528898  .00000105  00000+0  00000+0 0  9993
2 24315   6.6090  69.4731 0004560 160.2103 212.9168  0.99502512 98566
AMC-3 (GE-3)            
1 24936U 97050A   23220.59667663 -.00000272  00000+0  00000+0 0  9992
2 24936   5.5673  75.4348 0002885  67.7562 316.4347  1.00272599 94982
ASTRA 1G                
1 25071U 97076A   23220.42238472 -.00000279  00000+0  00000+0 0  9992
2 25071   7.0757  64.0193 0009951 103.4038  73.8394  0.99039377 94069
ASTRA 2A                
1 25462U 98050A   23221.19572480  .00000059  00000+0  00000+0 0  9999
2 25462   4.4507  81.0295 0002962  53.8297 310.2000  1.00271004 91280
NSS-11 (AAP-1)          
1 26554U 00059A   23221.06090926  .00000018  00000+0  00000+0 0  9995
2 26554   0.0459 279.8577 0002679 221.1455  14.1973  1.00272193 83710
AMC-6 (GE-6)            
1 26580U 00067A   23220.65498991  .00000097  00000+0  00000+0 0  9998
2 26580   0.0085  41.3995 0002357  88.2589 284.0269  1.00271112 83528
ASTRA 2C                
1 26853U 01025A   23220.36646521 -.00000271  00000+0  00000+0 0  9993
2 26853   5.5890  75.2553 0002820  51.8702 248.8916  1.00275037 81108
NSS-7                   
1 27414U 02019A   23220.39205137 -.00000170  00000+0  00000+0 0  9996
2 27414   6.8733  67.7301 0002285  75.3685 294.6749  1.00272093 78091
NSS-6                   
1 27603U 02057A   23220.42202090  .00000098  00000+0  00000+0 0  9995
2 27603   2.6657  86.6675 0003145  47.0262 165.3810  1.00270382 75568
AMC-11 (GE-11)          
1 28252U 04017A   23220.66048128 -.00000056  00000+0  00000+0 0  9995
2 28252   0.0478 283.1499 0001521 256.5085 263.8944  1.00268213 70248
AMC-15                  
1 28446U 04041A   23220.66178876 -.00000096  00000+0  00000+0 0  9995
2 28446   0.0628 282.0428 0002403 213.8853 314.1427  1.00271414 68889
NSS-10 (AMC-12)         
1 28526U 05003A   23221.32019664 -.00000261  00000+0  00000+0 0  9990
2 28526   3.8254  82.7908 0002895  40.5739 271.9964  1.00272125 67868
ASTRA 1KR               
1 29055U 06012A   23221.04480750  .00000113  00000+0  00000+0 0  9991
2 29055   0.0983 274.1196 0003993 273.0341 165.4261  1.00271653 63286
AMC-18                  
1 29644U 06054B   23221.38278098 -.00000222  00000+0  00000+0 0  9990
2 29644   0.0562 278.1869 0002286 235.5823 218.6229  1.00270575 61078
ASTRA 1L                
1 31306U 07016A   23221.25982230  .00000113  00000+0  00000+0 0  9991
2 31306   0.1099 291.3452 0001366 247.0036 251.8616  1.00272670 59589
ASTRA 4A (SIRIUS 4)     
1 32299U 07057A   23221.04424299  .00000025  00000+0  00000+0 0  9993
2 32299   0.0330 277.2159 0002580 227.1435 193.6293  1.00271847 57505
AMC-21                  
1 33275U 08038B   23220.65777918  .00000029  00000+0  00000+0 0  9997
2 33275   0.2446  96.6203 0003043  52.8313 279.3305  1.00271107 55004
ASTRA 1M                
1 33436U 08057A   23221.04771549  .00000112  00000+0  00000+0 0  9998
2 33436   0.0169  92.0244 0005226  49.0895 212.5399  1.00268460 54027
CIEL-2                  
1 33453U 08063A   23220.65699470  .00000051  00000+0  00000+0 0  9994
2 33453   0.0659 101.9761 0002777  44.7182 277.8454  1.00270983 53661
NSS-9                   
1 33749U 09008A   23220.64749372  .00000064  00000+0  00000+0 0  9992
2 33749   0.0378 290.3620 0002055 201.9486 240.7218  1.00270920 53104
SES-7 (PROTOSTAR 2)     
1 34941U 09027A   23221.11646543 -.00000352  00000+0  00000+0 0  9998
2 34941   0.0084  43.7268 0000997 200.4866 223.3070  1.00273093 52151
NSS-12                  
1 36032U 09058A   23221.05239084  .00000064  00000+0  00000+0 0  9995
2 36032   0.0606 276.9954 0002531 228.8355 247.2995  1.00273459 50457
SES-1                   
1 36516U 10016A   23220.41160432 -.00000122  00000+0  00000+0 0  9993
2 36516   0.0504 278.8322 0002214 221.7127 223.2635  1.00271416 48675
ASTRA 3B                
1 36581U 10021A   23220.97402969  .00000130  00000+0  00000+0 0  9994
2 36581   0.0559  44.7203 0004034  79.8252 206.7730  1.00272839 48197
SES-3                   
1 37748U 11035A   23220.66213743 -.00000109  00000+0  00000+0 0  9999
2 37748   0.0602 283.9337 0002537 216.0469 312.2641  1.00270733 44234
ASTRA 1N                
1 37775U 11041A   23221.04771549  .00000112  00000+0  00000+0 0  9995
2 37775   0.0504  23.2001 0003613  68.2883 262.1313  1.00270912 43946
SES-2                   
1 37809U 11049A   23221.38199650 -.00000203  00000+0  00000+0 0  9997
2 37809   0.0419 280.3900 0002292 224.1383 223.5885  1.00271522 43542
QUETZSAT 1              
1 37826U 11054A   23220.52403862 -.00000249  00000+0  00000+0 0  9990
2 37826   0.0377 278.2750 0002739 245.0536 265.0762  1.00273252 43638
SES-4                   
1 38087U 12007A   23221.06229918 -.00000175  00000+0  00000+0 0  9995
2 38087   0.0216  55.0188 0002508  90.5724 172.1190  1.00270065 42026
SES-5                   
1 38652U 12036A   23221.04424299  .00000027  00000+0  00000+0 0  9997
2 38652   0.0503 288.1505 0001949 216.3087 193.7055  1.00271932 40608
ASTRA 2F                
1 38778U 12051A   23221.08243931  .00000143  00000+0  00000+0 0  9998
2 38778   0.1059 258.6332 0003712 296.8021 179.7605  1.00277768 39836
SES-6                   
1 39172U 13026A   23221.03295309 -.00000268  00000+0  00000+0 0  9990
2 39172   0.0396 291.9814 0002252 222.9539 133.6903  1.00271591 37257
O3B FM5                 
1 39188U 13031A   23219.84930886 -.00000024  00000+0  00000+0 0  9995
2 39188   0.0435 343.0224 0003008 152.6089 224.3900  5.00115619184880
O3B FM4                 
1 39189U 13031B   23218.50577965 -.00000022  00000+0  00000+0 0  9991
2 39189   0.0513  16.1624 0002963 118.6298 225.2289  5.00116068184837
O3B FM2                 
1 39190U 13031C   23217.99797510 -.00000022  00000+0  00000+0 0  9995
2 39190   0.0531  21.4516 0002821 110.9680 227.6011  5.00115292184760
O3B PFM                 
1 39191U 13031D   23218.42363906 -.00000022  00000+0  00000+0 0  9993
2 39191   0.0458 354.2916 0002586 139.3542 226.3727  5.00115928184801
ASTRA 2E                
1 39285U 13056A   23220.68837403  .00000143  00000+0  00000+0 0  9996
2 39285   0.0564  20.3656 0002623 110.3081 102.5443  1.00272332 36124
SES-8                   
1 39460U 13071A   23221.05988703 -.00000276  00000+0  00000+0 0  9998
2 39460   0.0593 266.2421 0002469 216.6046 310.9842  1.00271139 35414
ASTRA 5B                
1 39617U 14011B   23220.97402969  .00000130  00000+0  00000+0 0  9990
2 39617   0.0775 296.2149 0003310 237.0576 158.0766  1.00274398 34416
O3B FM3                 
1 40079U 14038A   23218.27820001 -.00000022  00000+0  00000+0 0  9995
2 40079   0.0472   8.5850 0001005  58.9333 292.4893  5.00116674165816
O3B FM7                 
1 40080U 14038B   23220.82333133 -.00000025  00000+0  00000+0 0  9999
2 40080   0.0458  13.6977 0004428 125.5684 220.7643  5.00115826165962
O3B FM6                 
1 40081U 14038C   23217.25189008 -.00000022  00000+0  00000+0 0  9990
2 40081   0.0480   8.9749 0002663 122.1305 228.9144  5.00115243165783
O3B FM8                 
1 40082U 14038D   23217.90517823 -.00000022  00000+0  00000+0 0  9993
2 40082   0.0503  11.6143 0002558 122.9412 225.4623  5.00115892165794
O3B FM10                
1 40348U 14083A   23217.53181339 -.00000022  00000+0  00000+0 0  9996
2 40348   0.0497 358.4590 0002626 134.1483 227.4117  5.00115284157705
O3B FM11                
1 40349U 14083B   23217.54513637 -.00000022  00000+0  00000+0 0  9998
2 40349   0.0450 358.3706 0003308 129.6060 232.0501  5.00115490157709
O3B FM12                
1 40350U 14083C   23220.97054616 -.00000025  00000+0  00000+0 0  9991
2 40350   0.0457 359.4054 0002711 132.4897 228.1252  5.00115441157876
O3B FM9                 
1 40351U 14083D   23218.99807111 -.00000023  00000+0  00000+0 0  9995
2 40351   0.0439 358.0181 0002711 135.4524 226.5491  5.00115013157785
ASTRA 2G                
1 40364U 14089A   23220.68828687  .00000142  00000+0  00000+0 0  9996
2 40364   0.0427 342.9094 0003715 103.3498 146.6085  1.00269700 31556
SES-9                   
1 41380U 16013A   23220.79110358 -.00000352  00000+0  00000+0 0  9999
2 41380   0.0485 273.6062 0001792 207.2939 229.2179  1.00270540 27293
SES-10                  
1 42432U 17017A   23221.38600609 -.00000279  00000+0  00000+0 0  9990
2 42432   0.0183  72.3511 0002728  68.2812 249.0285  1.00269243 23275
SES-15                  
1 42709U 17026A   23221.01534580  .00000053  00000+0  00000+0 0  9990
2 42709   0.0176  38.5709 0000223 123.6990  31.3400  1.00268093 23721
SES-11 (ECHOSTAR 105)   
1 42967U 17063A   23220.38938580 -.00000097  00000+0  00000+0 0  9993
2 42967   0.0130  59.7595 0002361  98.6771 193.4122  1.00273132 21334
SES-14                  
1 43175U 18012B   23221.03155845 -.00000286  00000+0  00000+0 0  9998
2 43175   0.0257 317.1766 0000717 189.7385 134.1940  1.00271022 20585
O3B FM15                
1 43231U 18024A   23217.66486229 -.00000022  00000+0  00000+0 0  9999
2 43231   0.0531 358.0221 0002783 130.2483 231.7514  5.00114444 98852
O3B FM16                
1 43232U 18024B   23221.31617429 -.00000025  00000+0  00000+0 0  9998
2 43232   0.0570 356.1183 0002803 135.4159 228.4871  5.00116241 99017
O3B FM14                
1 43233U 18024C   23219.75705340 -.00000023  00000+0  00000+0 0  9992
2 43233   0.0586 356.5108 0002998 135.3019 228.2102  5.00115682 98938
O3B FM13                
1 43234U 18024D   23219.41094878 -.00000023  00000+0  00000+0 0  9993
2 43234   0.0468 346.6578 0002856 129.1283 244.2405  5.00115378 98921
SES-12                  
1 43488U 18049A   23220.41497573 -.00000277  00000+0  00000+0 0  9993
2 43488   0.0123  46.6889 0001172 188.8179 325.5193  1.00272070 18948
O3B FM20                
1 44112U 19020A   23217.38504978 -.00000022  00000+0  00000+0 0  9996
2 44112   0.0499 359.2071 0003057 124.1721 236.6469  5.00115719 79287
O3B FM19                
1 44113U 19020B   23220.41039933 -.00000024  00000+0  00000+0 0  9991
2 44113   0.0318 341.5180 0004141 161.2618 217.2461  5.00115512 79430
O3B FM17                
1 44114U 19020C   23218.09189671 -.00000022  00000+0  00000+0 0  9996
2 44114   0.0660  10.5334 0002785 117.4531 232.0356  5.00115941 79315
O3B FM18                
1 44115U 19020D   23221.03668983 -.00000025  00000+0  00000+0 0  9996
2 44115   0.0497 358.6703 0002732 135.7928 225.5565  5.00116032 79451
SES-17                  
1 49332U 21095A   23221.38600609 -.00000279  00000+0  00000+0 0  9997
2 49332   0.0160  90.1470 0000957  58.7635 240.5577  1.00269324  7381
SES-22                  
1 52933U 22071A   23220.43035501  .00000081  00000+0  00000+0 0  9991
2 52933   0.0192  90.8044 0001044  51.0158 194.7449  1.00271593  4099
SES-20                  
1 53960U 22123A   23221.02048854 -.00000108  00000+0  00000+0 0  9992
2 53960   0.0214 158.5409 0001823 302.1174 120.8706  1.00269552  3070
SES-21                  
1 53961U 22123B   23221.38640830  .00000062  00000+0  00000+0 0  9992
2 53961   0.0163  44.2404 0001512  92.6594 188.8240  1.00277360  3086
O3B MPOWER F1           
1 54755U 22174A   23221.01691477 -.00000025  00000+0  00000+0 0  9993
2 54755   0.0409  11.4576 0003730 200.1957 332.8012  5.00111892 13158
O3B MPOWER F2           
1 54756U 22174B   23220.42538095 -.00000024  00000+0  00000+0 0  9993
2 54756   0.0421  16.1415 0005213 182.1670 161.6699  5.00114032 13211
SES-18                  
1 55970U 23038A   23221.02048854 -.00000108  00000+0  00000+0 0  9991
2 55970   0.0592 265.7764 0001422 305.9424   9.7880  1.00271576  1650
SES-19                  
1 55971U 23038B   23220.43035501  .00000080  00000+0  00000+0 0  9999
2 55971   0.0458 271.2760 0001564 225.5342 199.8647  1.00270897  1616
O3B MPOWER F4           
1 56367U 23059A   23207.72501203 -.00000009  00000+0  00000+0 0  9998
2 56367   2.1756 293.7770 0440615  14.8765 346.4565  5.19695494  5657
O3B MPOWER F3           
1 56368U 23059B   23206.46386622 -.00000004  00000+0  00000+0 0  9990
2 56368   2.7431 289.6201 0734032  18.3577 344.2092  5.57759736  1712
